CCSDS_OMM_VERS = 2.0
CREATION_DATE  = 
ORIGINATOR     = 

OBJECT_NAME    = SL-4 R/B
OBJECT_ID      = 2014-021B
CENTER_NAME    = EARTH
REF_FRAME      = TEME
TIME_SYSTEM    = UTC
MEAN_ELEMENT_THEORY = SGP/SGP4

EPOCH          = 2025-12-08T06:12:05.496480
MEAN_MOTION    = 15.36502717
ECCENTRICITY   = .01022115
INCLINATION    = 51.6073
RA_OF_ASC_NODE = 62.3706
ARG_OF_PERICENTER = 130.0277
MEAN_ANOMALY   = 230.9730

EPHEMERIS_TYPE = 0
CLASSIFICATION_TYPE = U
NORAD_CAT_ID   = 39679
ELEMENT_SET_NO = 999
REV_AT_EPOCH   = 64220
BSTAR          = .36204116E-3
MEAN_MOTION_DOT = .15199E-3
MEAN_MOTION_DDOT = 0

CCSDS_OMM_VERS = 2.0
CREATION_DATE  = 
ORIGINATOR     = 

OBJECT_NAME    = ALOS-2
OBJECT_ID      = 2014-029A
CENTER_NAME    = EARTH
REF_FRAME      = TEME
TIME_SYSTEM    = UTC
MEAN_ELEMENT_THEORY = SGP/SGP4

EPOCH          = 2025-12-08T06:42:06.784416
MEAN_MOTION    = 14.79464340
ECCENTRICITY   = .00014613
INCLINATION    = 97.9231
RA_OF_ASC_NODE = 77.1892
ARG_OF_PERICENTER = 104.0021
MEAN_ANOMALY   = 256.1354

EPHEMERIS_TYPE = 0
CLASSIFICATION_TYPE = U
NORAD_CAT_ID   = 39766
ELEMENT_SET_NO = 999
REV_AT_EPOCH   = 62335
BSTAR          = .4711097E-3
MEAN_MOTION_DOT = .3468E-4
MEAN_MOTION_DDOT = 0

CCSDS_OMM_VERS = 2.0
CREATION_DATE  = 
ORIGINATOR     = 

OBJECT_NAME    = YAOGAN-29
OBJECT_ID      = 2015-069A
CENTER_NAME    = EARTH
REF_FRAME      = TEME
TIME_SYSTEM    = UTC
MEAN_ELEMENT_THEORY = SGP/SGP4

EPOCH          = 2025-12-08T07:10:01.343424
MEAN_MOTION    = 14.82875486
ECCENTRICITY   = .00003842
INCLINATION    = 98.0223
RA_OF_ASC_NODE = 5.4560
ARG_OF_PERICENTER = 350.0303
MEAN_ANOMALY   = 10.0903

EPHEMERIS_TYPE = 0
CLASSIFICATION_TYPE = U
NORAD_CAT_ID   = 41038
ELEMENT_SET_NO = 999
REV_AT_EPOCH   = 54233
BSTAR          = .12133689E-3
MEAN_MOTION_DOT = .929E-5
MEAN_MOTION_DDOT = 0

CCSDS_OMM_VERS = 2.0
CREATION_DATE  = 
ORIGINATOR     = 

OBJECT_NAME    = ASTRO-H (HITOMI)
OBJECT_ID      = 2016-012A
CENTER_NAME    = EARTH
REF_FRAME      = TEME
TIME_SYSTEM    = UTC
MEAN_ELEMENT_THEORY = SGP/SGP4

EPOCH          = 2025-12-07T23:52:30.110016
MEAN_MOTION    = 15.09307060
ECCENTRICITY   = .00094818
INCLINATION    = 30.9985
RA_OF_ASC_NODE = 227.9623
ARG_OF_PERICENTER = 130.8441
MEAN_ANOMALY   = 229.3020

EPHEMERIS_TYPE = 0
CLASSIFICATION_TYPE = U
NORAD_CAT_ID   = 41337
ELEMENT_SET_NO = 999
REV_AT_EPOCH   = 53836
BSTAR          = .27732264E-3
MEAN_MOTION_DOT = .4628E-4
MEAN_MOTION_DDOT = 0

CCSDS_OMM_VERS = 2.0
CREATION_DATE  = 
ORIGINATOR     = 

OBJECT_NAME    = HXMT (HUIYAN)
OBJECT_ID      = 2017-034A
CENTER_NAME    = EARTH
REF_FRAME      = TEME
TIME_SYSTEM    = UTC
MEAN_ELEMENT_THEORY = SGP/SGP4

EPOCH          = 2025-12-08T05:53:12.765696
MEAN_MOTION    = 15.16189504
ECCENTRICITY   = .00321098
INCLINATION    = 43.0124
RA_OF_ASC_NODE = 164.5682
ARG_OF_PERICENTER = 14.4980
MEAN_ANOMALY   = 345.6782

EPHEMERIS_TYPE = 0
CLASSIFICATION_TYPE = U
NORAD_CAT_ID   = 42758
ELEMENT_SET_NO = 999
REV_AT_EPOCH   = 46865
BSTAR          = .26975341E-3
MEAN_MOTION_DOT = .5133E-4
MEAN_MOTION_DDOT = 0

CCSDS_OMM_VERS = 2.0
CREATION_DATE  = 
ORIGINATOR     = 

OBJECT_NAME    = CZ-2C R/B
OBJECT_ID      = 2018-054D
CENTER_NAME    = EARTH
REF_FRAME      = TEME
TIME_SYSTEM    = UTC
MEAN_ELEMENT_THEORY = SGP/SGP4

EPOCH          = 2025-12-08T00:57:13.455648
MEAN_MOTION    = 15.72891366
ECCENTRICITY   = .00161452
INCLINATION    = 35.1322
RA_OF_ASC_NODE = 212.7449
ARG_OF_PERICENTER = 94.3341
MEAN_ANOMALY   = 265.9237

EPHEMERIS_TYPE = 0
CLASSIFICATION_TYPE = U
NORAD_CAT_ID   = 43521
ELEMENT_SET_NO = 999
REV_AT_EPOCH   = 41431
BSTAR          = .77987709E-3
MEAN_MOTION_DOT = .11219E-2
MEAN_MOTION_DDOT = 0

CCSDS_OMM_VERS = 2.0
CREATION_DATE  = 
ORIGINATOR     = 

OBJECT_NAME    = SAOCOM 1A
OBJECT_ID      = 2018-076A
CENTER_NAME    = EARTH
REF_FRAME      = TEME
TIME_SYSTEM    = UTC
MEAN_ELEMENT_THEORY = SGP/SGP4

EPOCH          = 2025-12-08T06:48:32.746176
MEAN_MOTION    = 14.82150394
ECCENTRICITY   = .00014916
INCLINATION    = 97.8852
RA_OF_ASC_NODE = 166.7711
ARG_OF_PERICENTER = 87.1280
MEAN_ANOMALY   = 273.0103

EPHEMERIS_TYPE = 0
CLASSIFICATION_TYPE = U
NORAD_CAT_ID   = 43641
ELEMENT_SET_NO = 999
REV_AT_EPOCH   = 38782
BSTAR          = .12953158E-3
MEAN_MOTION_DOT = .979E-5
MEAN_MOTION_DDOT = 0

CCSDS_OMM_VERS = 2.0
CREATION_DATE  = 
ORIGINATOR     = 

OBJECT_NAME    = H-2A R/B
OBJECT_ID      = 2018-084L
CENTER_NAME    = EARTH
REF_FRAME      = TEME
TIME_SYSTEM    = UTC
MEAN_ELEMENT_THEORY = SGP/SGP4

EPOCH          = 2025-12-08T06:23:23.465184
MEAN_MOTION    = 15.37130028
ECCENTRICITY   = .00276973
INCLINATION    = 98.8776
RA_OF_ASC_NODE = 175.4191
ARG_OF_PERICENTER = 341.9973
MEAN_ANOMALY   = 18.0283

EPHEMERIS_TYPE = 0
CLASSIFICATION_TYPE = U
NORAD_CAT_ID   = 43682
ELEMENT_SET_NO = 999
REV_AT_EPOCH   = 39171
BSTAR          = .60028248E-3
MEAN_MOTION_DOT = .22031E-3
MEAN_MOTION_DDOT = 0

CCSDS_OMM_VERS = 2.0
CREATION_DATE  = 
ORIGINATOR     = 

OBJECT_NAME    = SAOCOM 1B
OBJECT_ID      = 2020-059A
CENTER_NAME    = EARTH
REF_FRAME      = TEME
TIME_SYSTEM    = UTC
MEAN_ELEMENT_THEORY = SGP/SGP4

EPOCH          = 2025-12-08T05:56:20.384160
MEAN_MOTION    = 14.82152938
ECCENTRICITY   = .00012578
INCLINATION    = 97.8848
RA_OF_ASC_NODE = 165.8361
ARG_OF_PERICENTER = 88.0260
MEAN_ANOMALY   = 272.1097

EPHEMERIS_TYPE = 0
CLASSIFICATION_TYPE = U
NORAD_CAT_ID   = 46265
ELEMENT_SET_NO = 999
REV_AT_EPOCH   = 28520
BSTAR          = .13126099E-3
MEAN_MOTION_DOT = .993E-5
MEAN_MOTION_DDOT = 0

CCSDS_OMM_VERS = 2.0
CREATION_DATE  = 
ORIGINATOR     = 

OBJECT_NAME    = CSS (TIANHE)
OBJECT_ID      = 2021-035A
CENTER_NAME    = EARTH
REF_FRAME      = TEME
TIME_SYSTEM    = UTC
MEAN_ELEMENT_THEORY = SGP/SGP4

EPOCH          = 2025-12-08T07:04:12.884448
MEAN_MOTION    = 15.58883062
ECCENTRICITY   = .00091533
INCLINATION    = 41.4681
RA_OF_ASC_NODE = 43.6887
ARG_OF_PERICENTER = 354.9466
MEAN_ANOMALY   = 5.1278

EPHEMERIS_TYPE = 0
CLASSIFICATION_TYPE = U
NORAD_CAT_ID   = 48274
ELEMENT_SET_NO = 999
REV_AT_EPOCH   = 26333
BSTAR          = .309658E-3
MEAN_MOTION_DOT = .24468E-3
MEAN_MOTION_DDOT = 0

CCSDS_OMM_VERS = 2.0
CREATION_DATE  = 
ORIGINATOR     = 

OBJECT_NAME    = COSMOS 2550
OBJECT_ID      = 2021-056A
CENTER_NAME    = EARTH
REF_FRAME      = TEME
TIME_SYSTEM    = UTC
MEAN_ELEMENT_THEORY = SGP/SGP4

EPOCH          = 2025-12-08T07:00:23.376672
MEAN_MOTION    = 15.33825644
ECCENTRICITY   = .00083196
INCLINATION    = 67.1447
RA_OF_ASC_NODE = 317.3872
ARG_OF_PERICENTER = 269.8436
MEAN_ANOMALY   = 90.1765

EPHEMERIS_TYPE = 0
CLASSIFICATION_TYPE = U
NORAD_CAT_ID   = 48865
ELEMENT_SET_NO = 999
REV_AT_EPOCH   = 24944
BSTAR          = .77070913E-4
MEAN_MOTION_DOT = .2344E-4
MEAN_MOTION_DDOT = 0

CCSDS_OMM_VERS = 2.0
CREATION_DATE  = 
ORIGINATOR     = 

OBJECT_NAME    = CZ-2C R/B
OBJECT_ID      = 2022-058K
CENTER_NAME    = EARTH
REF_FRAME      = TEME
TIME_SYSTEM    = UTC
MEAN_ELEMENT_THEORY = SGP/SGP4

EPOCH          = 2025-12-08T05:24:08.319456
MEAN_MOTION    = 15.48191789
ECCENTRICITY   = .00458211
INCLINATION    = 50.1914
RA_OF_ASC_NODE = 66.5677
ARG_OF_PERICENTER = 179.8236
MEAN_ANOMALY   = 180.2756

EPHEMERIS_TYPE = 0
CLASSIFICATION_TYPE = U
NORAD_CAT_ID   = 52794
ELEMENT_SET_NO = 999
REV_AT_EPOCH   = 19593
BSTAR          = .57613424E-3
MEAN_MOTION_DOT = .31869E-3
MEAN_MOTION_DDOT = 0

