SL-4 R/B                
1 39679U 14021B   25342.25839695  .00015199  00000+0  36204-3 0  9997
2 39679  51.6073  62.3706 0102211 130.0277 230.9730 15.36502717642204
ALOS-2                  
1 39766U 14029A   25342.27924519  .00003468  00000+0  47111-3 0  9999
2 39766  97.9231  77.1892 0001461 104.0021 256.1354 14.79464340623355
YAOGAN-29               
1 41038U 15069A   25342.29862666  .00000929  00000+0  12134-3 0  9991
2 41038  98.0223   5.4560 0000384 350.0303  10.0903 14.82875486542334
ASTRO-H (HITOMI)        
1 41337U 16012A   25341.99479294  .00004628  00000+0  27732-3 0  9999
2 41337  30.9985 227.9623 0009481 130.8441 229.3020 15.09307060538362
HXMT (HUIYAN)           
1 42758U 17034A   25342.24528664  .00005133  00000+0  26975-3 0  9997
2 42758  43.0124 164.5682 0032109  14.4980 345.6782 15.16189504468659
CZ-2C R/B               
1 43521U 18054D   25342.03973907  .00112190  00000+0  77988-3 0  9992
2 43521  35.1322 212.7449 0016145  94.3341 265.9237 15.72891366414318
SAOCOM 1A               
1 43641U 18076A   25342.28371234  .00000979  00000+0  12953-3 0  9993
2 43641  97.8852 166.7711 0001491  87.1280 273.0103 14.82150394387820
H-2A R/B                
1 43682U 18084L   25342.26624381  .00022031  00000+0  60028-3 0  9998
2 43682  98.8776 175.4191 0027697 341.9973  18.0283 15.37130028391718
SAOCOM 1B               
1 46265U 20059A   25342.24745815  .00000993  00000+0  13126-3 0  9997
2 46265  97.8848 165.8361 0001257  88.0260 272.1097 14.82152938285206
CSS (TIANHE)            
1 48274U 21035A   25342.29459357  .00024468  00000+0  30966-3 0  9996
2 48274  41.4681  43.6887 0009153 354.9466   5.1278 15.58883062263338
COSMOS 2550             
1 48865U 21056A   25342.29193723  .00002344  00000+0  77071-4 0  9995
2 48865  67.1447 317.3872 0008319 269.8436  90.1765 15.33825644249444
CZ-2C R/B               
1 52794U 22058K   25342.22509629  .00031869  00000+0  57613-3 0  9996
2 52794  50.1914  66.5677 0045821 179.8236 180.2756 15.48191789195931
